{
    "week": 295,
    "satellites": [
        {
            "Name": "GSAT0101 (GALILEO-PFM)",
            "Line1": "1 37846U 11060A   24337.48651625 -.00000061  00000+0  00000+0 0  9998",
            "Line2": "2 37846  57.1202 356.9813 0002439 309.4449  50.5852  1.70475812 81541",
            "SatelliteNumber": "37846",
            "Classification": "U",
            "LaunchYear": "11",
            "LaunchNumber": "060",
            "PieceOfLaunch": "A",
            "EpochYear": "24",
            "EpochDay": 337.48651625,
            "FirstDerivativeMeanMotion": -6.1e-07,
            "SecondDerivativeMeanMotion": "00000+0",
            "BSTAR": "00000+0",
            "SetNumber": "999",
            "Inclination": 57.1202,
            "RAAN": 356.9813,
            "Eccentricity": 0.0002439,
            "ArgumentOfPerigee": 309.4449,
            "MeanAnomaly": 50.5852,
            "MeanMotion": 1.70475812,
            "RevolutionNumber": "8154"
        },
        {
            "Name": "GSAT0102 (GALILEO-FM2)",
            "Line1": "1 37847U 11060B   24338.58417527 -.00000059  00000+0  00000+0 0  9999",
            "Line2": "2 37847  57.1209 356.9518 0004437 303.5528  55.5097  1.70475301 81565",
            "SatelliteNumber": "37847",
            "Classification": "U",
            "LaunchYear": "11",
            "LaunchNumber": "060",
            "PieceOfLaunch": "B",
            "EpochYear": "24",
            "EpochDay": 338.58417527,
            "FirstDerivativeMeanMotion": -5.9e-07,
            "SecondDerivativeMeanMotion": "00000+0",
            "BSTAR": "00000+0",
            "SetNumber": "999",
            "Inclination": 57.1209,
            "RAAN": 356.9518,
            "Eccentricity": 0.0004437,
            "ArgumentOfPerigee": 303.5528,
            "MeanAnomaly": 55.5097,
            "MeanMotion": 1.70475301,
            "RevolutionNumber": "8156"
        },
        {
            "Name": "GSAT0103 (GALILEO-FM3)",
            "Line1": "1 38857U 12055A   24338.69905505  .00000048  00000+0  00000+0 0  9993",
            "Line2": "2 38857  55.4881 116.9457 0002552 250.5983 109.3348  1.70473434 75455",
            "SatelliteNumber": "38857",
            "Classification": "U",
            "LaunchYear": "12",
            "LaunchNumber": "055",
            "PieceOfLaunch": "A",
            "EpochYear": "24",
            "EpochDay": 338.69905505,
            "FirstDerivativeMeanMotion": 4.8e-07,
            "SecondDerivativeMeanMotion": "00000+0",
            "BSTAR": "00000+0",
            "SetNumber": "999",
            "Inclination": 55.4881,
            "RAAN": 116.9457,
            "Eccentricity": 0.0002552,
            "ArgumentOfPerigee": 250.5983,
            "MeanAnomaly": 109.3348,
            "MeanMotion": 1.70473434,
            "RevolutionNumber": "7545"
        },
        {
            "Name": "GSAT0201 (GALILEO 5)",
            "Line1": "1 40128U 14050A   24338.33061287 -.00000049  00000+0  00000+0 0  9997",
            "Line2": "2 40128  49.4838 296.2518 1615693 157.8200 210.0791  1.85519593 67919",
            "SatelliteNumber": "40128",
            "Classification": "U",
            "LaunchYear": "14",
            "LaunchNumber": "050",
            "PieceOfLaunch": "A",
            "EpochYear": "24",
            "EpochDay": 338.33061287,
            "FirstDerivativeMeanMotion": -4.9e-07,
            "SecondDerivativeMeanMotion": "00000+0",
            "BSTAR": "00000+0",
            "SetNumber": "999",
            "Inclination": 49.4838,
            "RAAN": 296.2518,
            "Eccentricity": 0.1615693,
            "ArgumentOfPerigee": 157.82,
            "MeanAnomaly": 210.0791,
            "MeanMotion": 1.85519593,
            "RevolutionNumber": "6791"
        },
        {
            "Name": "GSAT0202 (GALILEO 6)",
            "Line1": "1 40129U 14050B   24339.12725983 -.00000045  00000+0  00000+0 0  9992",
            "Line2": "2 40129  49.4991 295.2991 1615096 158.6387 208.9880  1.85520306 70098",
            "SatelliteNumber": "40129",
            "Classification": "U",
            "LaunchYear": "14",
            "LaunchNumber": "050",
            "PieceOfLaunch": "B",
            "EpochYear": "24",
            "EpochDay": 339.12725983,
            "FirstDerivativeMeanMotion": -4.5e-07,
            "SecondDerivativeMeanMotion": "00000+0",
            "BSTAR": "00000+0",
            "SetNumber": "999",
            "Inclination": 49.4991,
            "RAAN": 295.2991,
            "Eccentricity": 0.1615096,
            "ArgumentOfPerigee": 158.6387,
            "MeanAnomaly": 208.988,
            "MeanMotion": 1.85520306,
            "RevolutionNumber": "7009"
        },
        {
            "Name": "GSAT0203 (GALILEO 7)",
            "Line1": "1 40544U 15017A   24337.26533323 -.00000061  00000+0  00000+0 0  9993",
            "Line2": "2 40544  56.9149 356.8985 0006113 263.8341  96.1481  1.70476094 59624",
            "SatelliteNumber": "40544",
            "Classification": "U",
            "LaunchYear": "15",
            "LaunchNumber": "017",
            "PieceOfLaunch": "A",
            "EpochYear": "24",
            "EpochDay": 337.26533323,
            "FirstDerivativeMeanMotion": -6.1e-07,
            "SecondDerivativeMeanMotion": "00000+0",
            "BSTAR": "00000+0",
            "SetNumber": "999",
            "Inclination": 56.9149,
            "RAAN": 356.8985,
            "Eccentricity": 0.0006113,
            "ArgumentOfPerigee": 263.8341,
            "MeanAnomaly": 96.1481,
            "MeanMotion": 1.70476094,
            "RevolutionNumber": "5962"
        },
        {
            "Name": "GSAT0204 (GALILEO 8)",
            "Line1": "1 40545U 15017B   24339.27973893 -.00000060  00000+0  00000+0 0  9996",
            "Line2": "2 40545  56.9211 356.8598 0005871 254.4951 105.4867  1.70475587 60325",
            "SatelliteNumber": "40545",
            "Classification": "U",
            "LaunchYear": "15",
            "LaunchNumber": "017",
            "PieceOfLaunch": "B",
            "EpochYear": "24",
            "EpochDay": 339.27973893,
            "FirstDerivativeMeanMotion": -6e-07,
            "SecondDerivativeMeanMotion": "00000+0",
            "BSTAR": "00000+0",
            "SetNumber": "999",
            "Inclination": 56.9211,
            "RAAN": 356.8598,
            "Eccentricity": 0.0005871,
            "ArgumentOfPerigee": 254.4951,
            "MeanAnomaly": 105.4867,
            "MeanMotion": 1.70475587,
            "RevolutionNumber": "6032"
        },
        {
            "Name": "GSAT0205 (GALILEO 9)",
            "Line1": "1 40889U 15045A   24336.11537301  .00000027  00000+0  00000+0 0  9990",
            "Line2": "2 40889  55.1448 237.1605 0005979  34.1385 325.9762  1.70473044 57417",
            "SatelliteNumber": "40889",
            "Classification": "U",
            "LaunchYear": "15",
            "LaunchNumber": "045",
            "PieceOfLaunch": "A",
            "EpochYear": "24",
            "EpochDay": 336.11537301,
            "FirstDerivativeMeanMotion": 2.7e-07,
            "SecondDerivativeMeanMotion": "00000+0",
            "BSTAR": "00000+0",
            "SetNumber": "999",
            "Inclination": 55.1448,
            "RAAN": 237.1605,
            "Eccentricity": 0.0005979,
            "ArgumentOfPerigee": 34.1385,
            "MeanAnomaly": 325.9762,
            "MeanMotion": 1.70473044,
            "RevolutionNumber": "5741"
        },
        {
            "Name": "GSAT0206 (GALILEO 10)",
            "Line1": "1 40890U 15045B   24336.92254347  .00000032  00000+0  00000+0 0  9993",
            "Line2": "2 40890  55.1430 237.1333 0003112   9.1861 350.9008  1.70473129 57455",
            "SatelliteNumber": "40890",
            "Classification": "U",
            "LaunchYear": "15",
            "LaunchNumber": "045",
            "PieceOfLaunch": "B",
            "EpochYear": "24",
            "EpochDay": 336.92254347,
            "FirstDerivativeMeanMotion": 3.2e-07,
            "SecondDerivativeMeanMotion": "00000+0",
            "BSTAR": "00000+0",
            "SetNumber": "999",
            "Inclination": 55.143,
            "RAAN": 237.1333,
            "Eccentricity": 0.0003112,
            "ArgumentOfPerigee": 9.1861,
            "MeanAnomaly": 350.9008,
            "MeanMotion": 1.70473129,
            "RevolutionNumber": "5745"
        },
        {
            "Name": "GSAT0209 (GALILEO 12)",
            "Line1": "1 41174U 15079A   24337.09167231  .00000047  00000+0  00000+0 0  9996",
            "Line2": "2 41174  55.5067 116.7005 0001879 343.8499  16.1033  1.70474469 55198",
            "SatelliteNumber": "41174",
            "Classification": "U",
            "LaunchYear": "15",
            "LaunchNumber": "079",
            "PieceOfLaunch": "A",
            "EpochYear": "24",
            "EpochDay": 337.09167231,
            "FirstDerivativeMeanMotion": 4.7e-07,
            "SecondDerivativeMeanMotion": "00000+0",
            "BSTAR": "00000+0",
            "SetNumber": "999",
            "Inclination": 55.5067,
            "RAAN": 116.7005,
            "Eccentricity": 0.0001879,
            "ArgumentOfPerigee": 343.8499,
            "MeanAnomaly": 16.1033,
            "MeanMotion": 1.70474469,
            "RevolutionNumber": "5519"
        }
    ]
}